ORBCOMM FM33 [-]        
1 25983U 99065D   23324.92449425  .00000813  00000+0  31937-3 0  9996
2 25983  45.0287 202.1981 0009162  52.2643 323.2211 14.36987558253389
ORBCOMM FM36 [-]        
1 25984U 99065E   23325.19367260  .00000868  00000+0  35208-3 0  9998
2 25984  45.0410 283.4731 0005263 301.6986  58.3348 14.34861793252489
ORBCOMM FM35 [+]        
1 25985U 99065F   23324.84414319  .00000863  00000+0  35258-3 0  9998
2 25985  45.0409 287.2932 0003209  10.9874 349.1043 14.34540422252247
ORBCOMM FM34 [-]        
1 25986U 99065G   23325.15775139  .00000833  00000+0  34232-3 0  9992
2 25986  45.0405 286.3026 0005094 333.5188  26.5399 14.34492745252440
ORBCOMM FM38 [-]        
1 33060U 08031A   23324.93093167  .00001252  00000+0  20756-3 0  9998
2 33060  48.4406 160.8112 0005193 104.5422 255.6068 14.76421933829769
ORBCOMM FM41 [-]        
1 33061U 08031B   23325.04504949  .00001195  00000+0  20050-3 0  9990
2 33061  48.4445 166.5042 0004259  90.3960  74.4606 14.76182084829721
ORBCOMM FM29 [-]        
1 33062U 08031C   23324.95009757  .00001257  00000+0  20994-3 0  9993
2 33062  48.4398 174.9490 0006183  86.9037  50.6774 14.76067424829185
ORBCOMM FM39 [-]        
1 33063U 08031D   23325.05297551  .00001109  00000+0  19243-3 0  9998
2 33063  48.4412 193.7786 0007129  61.4473 298.7157 14.75206459829332
